<?xml version="1.0" encoding="UTF-8"?>
<ndm xmlns:xsi="http://www.w3.org/2001/XMLSchema-instance" xsi:noNamespaceSchemaLocation="https://sanaregistry.org/r/ndmxml_unqualified/ndmxml-2.0.0-master-2.0.xsd">
<omm id="CCSDS_OMM_VERS" version="2.0">
<header><CREATION_DATE/><ORIGINATOR/></header><body><segment><metadata><OBJECT_NAME>IRIDIUM 112</OBJECT_NAME><OBJECT_ID>2017-003J</OBJECT_ID><CENTER_NAME>EARTH</CENTER_NAME><REF_FRAME>TEME</REF_FRAME><TIME_SYSTEM>UTC</TIME_SYSTEM><MEAN_ELEMENT_THEORY>SGP4</MEAN_ELEMENT_THEORY></metadata><data><meanElements><EPOCH>2024-10-12T05:12:37.994688</EPOCH><MEAN_MOTION>14.34217358</MEAN_MOTION><ECCENTRICITY>.0001894</ECCENTRICITY><INCLINATION>86.4004</INCLINATION><RA_OF_ASC_NODE>344.4733</RA_OF_ASC_NODE><ARG_OF_PERICENTER>94.6115</ARG_OF_PERICENTER><MEAN_ANOMALY>265.5297</MEAN_ANOMALY></meanElements><tleParameters><EPHEMERIS_TYPE>0</EPHEMERIS_TYPE><CLASSIFICATION_TYPE>U</CLASSIFICATION_TYPE><NORAD_CAT_ID>41925</NORAD_CAT_ID><ELEMENT_SET_NO>999</ELEMENT_SET_NO><REV_AT_EPOCH>40541</REV_AT_EPOCH><BSTAR>.34937E-3</BSTAR><MEAN_MOTION_DOT>.998E-5</MEAN_MOTION_DOT><MEAN_MOTION_DDOT>0</MEAN_MOTION_DDOT></tleParameters></data></segment></body></omm>
<omm id="CCSDS_OMM_VERS" version="2.0">
<header><CREATION_DATE/><ORIGINATOR/></header><body><segment><metadata><OBJECT_NAME>IRIDIUM 111</OBJECT_NAME><OBJECT_ID>2017-003K</OBJECT_ID><CENTER_NAME>EARTH</CENTER_NAME><REF_FRAME>TEME</REF_FRAME><TIME_SYSTEM>UTC</TIME_SYSTEM><MEAN_ELEMENT_THEORY>SGP4</MEAN_ELEMENT_THEORY></metadata><data><meanElements><EPOCH>2024-10-12T09:55:46.054272</EPOCH><MEAN_MOTION>14.34217983</MEAN_MOTION><ECCENTRICITY>.0002003</ECCENTRICITY><INCLINATION>86.4006</INCLINATION><RA_OF_ASC_NODE>344.4480</RA_OF_ASC_NODE><ARG_OF_PERICENTER>95.2377</ARG_OF_PERICENTER><MEAN_ANOMALY>264.9048</MEAN_ANOMALY></meanElements><tleParameters><EPHEMERIS_TYPE>0</EPHEMERIS_TYPE><CLASSIFICATION_TYPE>U</CLASSIFICATION_TYPE><NORAD_CAT_ID>41926</NORAD_CAT_ID><ELEMENT_SET_NO>999</ELEMENT_SET_NO><REV_AT_EPOCH>40542</REV_AT_EPOCH><BSTAR>.18575E-3</BSTAR><MEAN_MOTION_DOT>.54E-5</MEAN_MOTION_DOT><MEAN_MOTION_DDOT>0</MEAN_MOTION_DDOT></tleParameters></data></segment></body></omm>
<omm id="CCSDS_OMM_VERS" version="2.0">
<header><CREATION_DATE/><ORIGINATOR/></header><body><segment><metadata><OBJECT_NAME>IRIDIUM 113</OBJECT_NAME><OBJECT_ID>2017-039A</OBJECT_ID><CENTER_NAME>EARTH</CENTER_NAME><REF_FRAME>TEME</REF_FRAME><TIME_SYSTEM>UTC</TIME_SYSTEM><MEAN_ELEMENT_THEORY>SGP4</MEAN_ELEMENT_THEORY></metadata><data><meanElements><EPOCH>2024-10-12T12:47:50.265888</EPOCH><MEAN_MOTION>14.34211036</MEAN_MOTION><ECCENTRICITY>.0002111</ECCENTRICITY><INCLINATION>86.4018</INCLINATION><RA_OF_ASC_NODE>218.1369</RA_OF_ASC_NODE><ARG_OF_PERICENTER>81.1108</ARG_OF_PERICENTER><MEAN_ANOMALY>279.0327</MEAN_ANOMALY></meanElements><tleParameters><EPHEMERIS_TYPE>0</EPHEMERIS_TYPE><CLASSIFICATION_TYPE>U</CLASSIFICATION_TYPE><NORAD_CAT_ID>42803</NORAD_CAT_ID><ELEMENT_SET_NO>999</ELEMENT_SET_NO><REV_AT_EPOCH>38337</REV_AT_EPOCH><BSTAR>.31227E-3</BSTAR><MEAN_MOTION_DOT>.894E-5</MEAN_MOTION_DOT><MEAN_MOTION_DDOT>0</MEAN_MOTION_DDOT></tleParameters></data></segment></body></omm>
<omm id="CCSDS_OMM_VERS" version="2.0">
<header><CREATION_DATE/><ORIGINATOR/></header><body><segment><metadata><OBJECT_NAME>IRIDIUM 123</OBJECT_NAME><OBJECT_ID>2017-039B</OBJECT_ID><CENTER_NAME>EARTH</CENTER_NAME><REF_FRAME>TEME</REF_FRAME><TIME_SYSTEM>UTC</TIME_SYSTEM><MEAN_ELEMENT_THEORY>SGP4</MEAN_ELEMENT_THEORY></metadata><data><meanElements><EPOCH>2024-10-12T10:26:38.065056</EPOCH><MEAN_MOTION>14.34221551</MEAN_MOTION><ECCENTRICITY>.0002361</ECCENTRICITY><INCLINATION>86.3940</INCLINATION><RA_OF_ASC_NODE>249.6511</RA_OF_ASC_NODE><ARG_OF_PERICENTER>88.5167</ARG_OF_PERICENTER><MEAN_ANOMALY>271.6299</MEAN_ANOMALY></meanElements><tleParameters><EPHEMERIS_TYPE>0</EPHEMERIS_TYPE><CLASSIFICATION_TYPE>U</CLASSIFICATION_TYPE><NORAD_CAT_ID>42804</NORAD_CAT_ID><ELEMENT_SET_NO>999</ELEMENT_SET_NO><REV_AT_EPOCH>38212</REV_AT_EPOCH><BSTAR>.4261E-3</BSTAR><MEAN_MOTION_DOT>.1213E-4</MEAN_MOTION_DOT><MEAN_MOTION_DDOT>0</MEAN_MOTION_DDOT></tleParameters></data></segment></body></omm>
<omm id="CCSDS_OMM_VERS" version="2.0">
<header><CREATION_DATE/><ORIGINATOR/></header><body><segment><metadata><OBJECT_NAME>IRIDIUM 120</OBJECT_NAME><OBJECT_ID>2017-039C</OBJECT_ID><CENTER_NAME>EARTH</CENTER_NAME><REF_FRAME>TEME</REF_FRAME><TIME_SYSTEM>UTC</TIME_SYSTEM><MEAN_ELEMENT_THEORY>SGP4</MEAN_ELEMENT_THEORY></metadata><data><meanElements><EPOCH>2024-10-12T12:38:43.086048</EPOCH><MEAN_MOTION>14.34217760</MEAN_MOTION><ECCENTRICITY>.0002388</ECCENTRICITY><INCLINATION>86.4003</INCLINATION><RA_OF_ASC_NODE>218.0019</RA_OF_ASC_NODE><ARG_OF_PERICENTER>81.0139</ARG_OF_PERICENTER><MEAN_ANOMALY>279.1327</MEAN_ANOMALY></meanElements><tleParameters><EPHEMERIS_TYPE>0</EPHEMERIS_TYPE><CLASSIFICATION_TYPE>U</CLASSIFICATION_TYPE><NORAD_CAT_ID>42805</NORAD_CAT_ID><ELEMENT_SET_NO>999</ELEMENT_SET_NO><REV_AT_EPOCH>38336</REV_AT_EPOCH><BSTAR>.23224E-3</BSTAR><MEAN_MOTION_DOT>.67E-5</MEAN_MOTION_DOT><MEAN_MOTION_DDOT>0</MEAN_MOTION_DDOT></tleParameters></data></segment></body></omm>
<omm id="CCSDS_OMM_VERS" version="2.0">
<header><CREATION_DATE/><ORIGINATOR/></header><body><segment><metadata><OBJECT_NAME>IRIDIUM 115</OBJECT_NAME><OBJECT_ID>2017-039D</OBJECT_ID><CENTER_NAME>EARTH</CENTER_NAME><REF_FRAME>TEME</REF_FRAME><TIME_SYSTEM>UTC</TIME_SYSTEM><MEAN_ELEMENT_THEORY>SGP4</MEAN_ELEMENT_THEORY></metadata><data><meanElements><EPOCH>2024-10-12T08:56:34.856160</EPOCH><MEAN_MOTION>14.43282268</MEAN_MOTION><ECCENTRICITY>.0002213</ECCENTRICITY><INCLINATION>86.4540</INCLINATION><RA_OF_ASC_NODE>218.1082</RA_OF_ASC_NODE><ARG_OF_PERICENTER>90.1540</ARG_OF_PERICENTER><MEAN_ANOMALY>269.9914</MEAN_ANOMALY></meanElements><tleParameters><EPHEMERIS_TYPE>0</EPHEMERIS_TYPE><CLASSIFICATION_TYPE>U</CLASSIFICATION_TYPE><NORAD_CAT_ID>42806</NORAD_CAT_ID><ELEMENT_SET_NO>999</ELEMENT_SET_NO><REV_AT_EPOCH>38587</REV_AT_EPOCH><BSTAR>.69723E-3</BSTAR><MEAN_MOTION_DOT>.2366E-4</MEAN_MOTION_DOT><MEAN_MOTION_DDOT>0</MEAN_MOTION_DDOT></tleParameters></data></segment></body></omm>
<omm id="CCSDS_OMM_VERS" version="2.0">
<header><CREATION_DATE/><ORIGINATOR/></header><body><segment><metadata><OBJECT_NAME>IRIDIUM 118</OBJECT_NAME><OBJECT_ID>2017-039E</OBJECT_ID><CENTER_NAME>EARTH</CENTER_NAME><REF_FRAME>TEME</REF_FRAME><TIME_SYSTEM>UTC</TIME_SYSTEM><MEAN_ELEMENT_THEORY>SGP4</MEAN_ELEMENT_THEORY></metadata><data><meanElements><EPOCH>2024-10-12T09:31:50.739456</EPOCH><MEAN_MOTION>14.34213928</MEAN_MOTION><ECCENTRICITY>.0002381</ECCENTRICITY><INCLINATION>86.3945</INCLINATION><RA_OF_ASC_NODE>249.6674</RA_OF_ASC_NODE><ARG_OF_PERICENTER>84.4345</ARG_OF_PERICENTER><MEAN_ANOMALY>275.7122</MEAN_ANOMALY></meanElements><tleParameters><EPHEMERIS_TYPE>0</EPHEMERIS_TYPE><CLASSIFICATION_TYPE>U</CLASSIFICATION_TYPE><NORAD_CAT_ID>42807</NORAD_CAT_ID><ELEMENT_SET_NO>999</ELEMENT_SET_NO><REV_AT_EPOCH>38211</REV_AT_EPOCH><BSTAR>.48476E-3</BSTAR><MEAN_MOTION_DOT>.1377E-4</MEAN_MOTION_DOT><MEAN_MOTION_DDOT>0</MEAN_MOTION_DDOT></tleParameters></data></segment></body></omm>
<omm id="CCSDS_OMM_VERS" version="2.0">
<header><CREATION_DATE/><ORIGINATOR/></header><body><segment><metadata><OBJECT_NAME>IRIDIUM 117</OBJECT_NAME><OBJECT_ID>2017-039F</OBJECT_ID><CENTER_NAME>EARTH</CENTER_NAME><REF_FRAME>TEME</REF_FRAME><TIME_SYSTEM>UTC</TIME_SYSTEM><MEAN_ELEMENT_THEORY>SGP4</MEAN_ELEMENT_THEORY></metadata><data><meanElements><EPOCH>2024-10-12T09:59:14.435520</EPOCH><MEAN_MOTION>14.34214305</MEAN_MOTION><ECCENTRICITY>.0002368</ECCENTRICITY><INCLINATION>86.3943</INCLINATION><RA_OF_ASC_NODE>249.6231</RA_OF_ASC_NODE><ARG_OF_PERICENTER>90.1526</ARG_OF_PERICENTER><MEAN_ANOMALY>269.9941</MEAN_ANOMALY></meanElements><tleParameters><EPHEMERIS_TYPE>0</EPHEMERIS_TYPE><CLASSIFICATION_TYPE>U</CLASSIFICATION_TYPE><NORAD_CAT_ID>42808</NORAD_CAT_ID><ELEMENT_SET_NO>999</ELEMENT_SET_NO><REV_AT_EPOCH>38214</REV_AT_EPOCH><BSTAR>.17268E-3</BSTAR><MEAN_MOTION_DOT>.503E-5</MEAN_MOTION_DOT><MEAN_MOTION_DDOT>0</MEAN_MOTION_DDOT></tleParameters></data></segment></body></omm>

</ndm>
