IRIDIUM 112             
1 41925U 17003J   24286.21710642  .00000998  00000+0  34937-3 0  9991
2 41925  86.4004 344.4733 0001894  94.6115 265.5297 14.34217358405419
IRIDIUM 111             
1 41926U 17003K   24286.41372748  .00000540  00000+0  18575-3 0  9998
2 41926  86.4006 344.4480 0002003  95.2377 264.9048 14.34217983405423
IRIDIUM 113             
1 42803U 17039A   24286.53322067  .00000894  00000+0  31227-3 0  9995
2 42803  86.4018 218.1369 0002111  81.1108 279.0327 14.34211036383379
IRIDIUM 123             
1 42804U 17039B   24286.43516279  .00001213  00000+0  42610-3 0  9999
2 42804  86.3940 249.6511 0002361  88.5167 271.6299 14.34221551382125
IRIDIUM 120             
1 42805U 17039C   24286.52688757  .00000670  00000+0  23224-3 0  9997
2 42805  86.4003 218.0019 0002388  81.0139 279.1327 14.34217760383365
IRIDIUM 115             
1 42806U 17039D   24286.37262565  .00002366  00000+0  69723-3 0  9994
2 42806  86.4540 218.1082 0002213  90.1540 269.9914 14.43282268385879
IRIDIUM 118             
1 42807U 17039E   24286.39711504  .00001377  00000+0  48476-3 0  9992
2 42807  86.3945 249.6674 0002381  84.4345 275.7122 14.34213928382116
IRIDIUM 117             
1 42808U 17039F   24286.41613930  .00000503  00000+0  17268-3 0  9995
2 42808  86.3943 249.6231 0002368  90.1526 269.9941 14.34214305382141
